*******************************************************************************
Ephemeris / WWW_USER Mon Oct 15 11:02:09 2018 Pasadena, USA      / Horizons    
*******************************************************************************
Target body name: Earth (399)                     {source: DE431mx}
Center body name: Solar System Barycenter (0)     {source: DE431mx}
Center-site name: BODY CENTER
*******************************************************************************
Start time      : A.D. 2018-Oct-07 00:00:00.0000 TDB
Stop  time      : A.D. 2018-Nov-06 00:00:00.0000 TDB
Step-size       : 1440 minutes
*******************************************************************************
Center geodetic : 0.00000000,0.00000000,0.0000000 {E-lon(deg),Lat(deg),Alt(km)}
Center cylindric: 0.00000000,0.00000000,0.0000000 {E-lon(deg),Dxy(km),Dz(km)}
Center radii    : (undefined)                                                  
Output units    : AU-D                                                         
Output type     : GEOMETRIC cartesian states
Output format   : 2 (position and velocity)
Reference frame : ICRF/J2000.0                                                 
Coordinate systm: Ecliptic and Mean Equinox of Reference Epoch                 
*******************************************************************************
            JDTDB,            Calendar Date (TDB),                      X,                      Y,                      Z,                     VX,                     VY,                     VZ,
**************************************************************************************************************************************************************************************************
$$SOE
2458398.500000000, A.D. 2018-Oct-07 00:00:00.0000,  9.722278056549365E-01,  2.392458037207544E-01, -8.972496282471999E-05, -4.279147315890278E-03,  1.667986791640898E-02, -1.025306071528558E-06,
2458399.500000000, A.D. 2018-Oct-08 00:00:00.0000,  9.678039155528527E-01,  2.558906317702827E-01, -9.069067159141651E-05, -4.568463272273892E-03,  1.660888069738760E-02, -9.018712402758160E-07,
2458400.500000000, A.D. 2018-Oct-09 00:00:00.0000,  9.630912534883637E-01,  2.724617534131148E-01, -9.152184033608008E-05, -4.856656405471445E-03,  1.653245972615388E-02, -7.578816088627513E-07,
2458401.500000000, A.D. 2018-Oct-10 00:00:00.0000,  9.580910445270809E-01,  2.889537551789592E-01, -9.220301031466894E-05, -5.143524929947315E-03,  1.645065169300370E-02, -6.036117566681970E-07,
2458402.500000000, A.D. 2018-Oct-11 00:00:00.0000,  9.528047055398201E-01,  3.053612869840809E-01, -9.272902073041313E-05, -5.428888690270241E-03,  1.636353485946535E-02, -4.491683144318728E-07,
2458403.500000000, A.D. 2018-Oct-12 00:00:00.0000,  9.472338196836673E-01,  3.216790877655131E-01, -9.310425816193890E-05, -5.712595804744874E-03,  1.627120685499318E-02, -3.033942175908446E-07,
2458404.500000000, A.D. 2018-Oct-13 00:00:00.0000,  9.413801075750535E-01,  3.379019986046322E-01, -9.334104672733438E-05, -5.994522787486753E-03,  1.617377250092178E-02, -1.732657683299539E-07,
2458405.500000000, A.D. 2018-Oct-14 00:00:00.0000,  9.352454008884915E-01,  3.540249650355309E-01, -9.345769332800290E-05, -6.274570008589457E-03,  1.607133470871099E-02, -6.379017595165157E-08,
2458406.500000000, A.D. 2018-Oct-15 00:00:00.0000,  9.288316216792494E-01,  3.700430323295124E-01, -9.347662052231544E-05, -6.552655235398258E-03,  1.596398956009724E-02,  2.174928948934206E-08,
2458407.500000000, A.D. 2018-Oct-16 00:00:00.0000,  9.221407681304493E-01,  3.859513377832802E-01, -9.342283541098679E-05, -6.828707544910924E-03,  1.585182505936633E-02,  8.139769320198632E-08,
2458408.500000000, A.D. 2018-Oct-17 00:00:00.0000,  9.151749056223659E-01,  4.017451030775965E-01, -9.332280058594446E-05, -7.102662898678862E-03,  1.573492229087253E-02,  1.141410257643990E-07,
2458409.500000000, A.D. 2018-Oct-18 00:00:00.0000,  9.079361611992910E-01,  4.174196284373897E-01, -9.320364656857048E-05, -7.374461784272602E-03,  1.561335766240027E-02,  1.196212616732829E-07,
2458410.500000000, A.D. 2018-Oct-19 00:00:00.0000,  9.004267194046488E-01,  4.329702891250327E-01, -9.309259935529284E-05, -7.644048786784979E-03,  1.548720517812966E-02,  9.799447004349826E-08,
2458411.500000000, A.D. 2018-Oct-20 00:00:00.0000,  8.926488177378531E-01,  4.483925338918501E-01, -9.301647454116322E-05, -7.911373695252017E-03,  1.535653797441384E-02,  4.993870038966145E-08,
2458412.500000000, A.D. 2018-Oct-21 00:00:00.0000,  8.846047404537447E-01,  4.636818843580432E-01, -9.300109384787016E-05, -8.176393611948822E-03,  1.522142856188032E-02, -2.320257331155999E-08,
2458413.500000000, A.D. 2018-Oct-22 00:00:00.0000,  8.762968100249854E-01,  4.788339338174544E-01, -9.307050339169484E-05, -8.439075390315470E-03,  1.508194738302731E-02, -1.191747734059677E-07,
2458414.500000000, A.D. 2018-Oct-23 00:00:00.0000,  8.677273763520318E-01,  4.938443436758804E-01, -9.324591818390505E-05, -8.699397543021972E-03,  1.493815952073119E-02, -2.345225064878132E-07,
2458415.500000000, A.D. 2018-Oct-24 00:00:00.0000,  8.588988047480848E-01,  5.087088357459655E-01, -9.354439033463692E-05, -8.957350610922050E-03,  1.479011978370329E-02, -3.643436788717447E-07,
2458416.500000000, A.D. 2018-Oct-25 00:00:00.0000,  8.498134647333243E-01,  5.234231791210413E-01, -9.397729867392794E-05, -9.212935040037689E-03,  1.463786696415471E-02, -5.021971247809187E-07,
2458417.500000000, A.D. 2018-Oct-26 00:00:00.0000,  8.404737224397151E-01,  5.379831714498152E-01, -9.454886687742862E-05, -9.466156060152803E-03,  1.448141865075181E-02, -6.402661151898044E-07,
2458418.500000000, A.D. 2018-Oct-27 00:00:00.0000,  8.308819395329369E-01,  5.523846159970458E-01, -9.525499700430796E-05, -9.717015915631750E-03,  1.432076825752781E-02, -7.698270239491038E-07,
2458419.500000000, A.D. 2018-Oct-28 00:00:00.0000,  8.210404807070517E-01,  5.666232974219657E-01, -9.608271096823300E-05, -9.965504780501672E-03,  1.415588558363407E-02, -8.819811743490148E-07,
2458420.500000000, A.D. 2018-Oct-29 00:00:00.0000,  8.109517301254524E-01,  5.806949600758906E-01, -9.701040313895441E-05, -1.021159228229546E-02,  1.398672124927886E-02, -9.685178032076328E-07,
2458421.500000000, A.D. 2018-Oct-30 00:00:00.0000,  8.006181152781326E-01,  5.945952923785705E-01, -9.800894977432547E-05, -1.045522137932618E-02,  1.381321420203540E-02, -1.022736847993100E-06,
2458422.500000000, A.D. 2018-Oct-31 00:00:00.0000,  7.900421353689517E-01,  6.083199196130864E-01, -9.904356035723252E-05, -1.069630548468881E-02,  1.363530077517351E-02, -1.040092626533418E-06,
2458423.500000000, A.D. 2018-Nov-01 00:00:00.0000,  7.792263909571769E-01,  6.218644059204045E-01, -1.000761536715864E-04, -1.093472875675128E-02,  1.345292382163973E-02, -1.018595869233437E-06,
2458424.500000000, A.D. 2018-Nov-02 00:00:00.0000,  7.681736119754334E-01,  6.352242650605450E-01, -1.010680152652487E-04, -1.117034894299894E-02,  1.326604101750286E-02, -9.589785687080870E-07,
2458425.500000000, A.D. 2018-Nov-03 00:00:00.0000,  7.568866818711384E-01,  6.483949789024712E-01, -1.019825122556535E-04, -1.140300222458833E-02,  1.307463198392195E-02, -8.646472327809290E-07,
2458426.500000000, A.D. 2018-Nov-04 00:00:00.0000,  7.453686560033875E-01,  6.613720223585690E-01, -1.027876592750932E-04, -1.163250984946245E-02,  1.287870399958083E-02, -7.414303540778634E-07,
2458427.500000000, A.D. 2018-Nov-05 00:00:00.0000,  7.336227725403957E-01,  6.741508931207001E-01, -1.034583220789770E-04, -1.185868646841605E-02,  1.267829576579460E-02, -5.971030631012482E-07,
2458428.500000000, A.D. 2018-Nov-06 00:00:00.0000,  7.216524543355151E-01,  6.867271438249846E-01, -1.039778313689416E-04, -1.208134970660454E-02,  1.247347834146562E-02, -4.406864890229559E-07,
$$EOE
**************************************************************************************************************************************************************************************************
Coordinate system description:

  Ecliptic and Mean Equinox of Reference Epoch

    Reference epoch: J2000.0
    XY-plane: plane of the Earth's orbit at the reference epoch
              Note: obliquity of 84381.448 arcseconds wrt ICRF equator (IAU76)
    X-axis  : out along ascending node of instantaneous plane of the Earth's
              orbit and the Earth's mean equator at the reference epoch
    Z-axis  : perpendicular to the xy-plane in the directional (+ or -) sense
              of Earth's north pole at the reference epoch.

  Symbol meaning [1 au= 149597870.700 km, 1 day= 86400.0 s]:

    JDTDB    Julian Day Number, Barycentric Dynamical Time
      X      X-component of position vector (au)                               
      Y      Y-component of position vector (au)                               
      Z      Z-component of position vector (au)                               
      VX     X-component of velocity vector (au/day)                           
      VY     Y-component of velocity vector (au/day)                           
      VZ     Z-component of velocity vector (au/day)                           

Geometric states/elements have no aberrations applied.

 Computations by ...
     Solar System Dynamics Group, Horizons On-Line Ephemeris System
     4800 Oak Grove Drive, Jet Propulsion Laboratory
     Pasadena, CA  91109   USA
     Information: http://ssd.jpl.nasa.gov/
     Connect    : telnet://ssd.jpl.nasa.gov:6775  (via browser)
                  http://ssd.jpl.nasa.gov/?horizons
                  telnet ssd.jpl.nasa.gov 6775    (via command-line)
     Author     : Jon.D.Giorgini@jpl.nasa.gov
*******************************************************************************
